[{"OBJECT_NAME":"STARLINK-5126","OBJECT_ID":"2022-125BA","EPOCH":"2026-03-26T12:11:24.070272","MEAN_MOTION":15.08835514,"ECCENTRICITY":0.0001151,"INCLINATION":53.2167,"RA_OF_ASC_NODE":128.4967,"ARG_OF_PERICENTER":87.642,"MEAN_ANOMALY":272.4703,"EPHEMERIS_TYPE":0,"CLASSIFICATION_TYPE":"U","NORAD_CAT_ID":54012,"ELEMENT_SET_NO":999,"REV_AT_EPOCH":19214,"BSTAR":0.00010433,"MEAN_MOTION_DOT":1.373e-5,"MEAN_MOTION_DDOT":0},{"OBJECT_NAME":"STARLINK-5098","OBJECT_ID":"2022-125BB","EPOCH":"2026-03-26T09:11:14.247456","MEAN_MOTION":15.08835701,"ECCENTRICITY":0.0001287,"INCLINATION":53.2163,"RA_OF_ASC_NODE":129.1374,"ARG_OF_PERICENTER":93.9117,"MEAN_ANOMALY":266.2022,"EPHEMERIS_TYPE":0,"CLASSIFICATION_TYPE":"U","NORAD_CAT_ID":54013,"ELEMENT_SET_NO":999,"REV_AT_EPOCH":19212,"BSTAR":4.5008e-5,"MEAN_MOTION_DOT":4.28e-6,"MEAN_MOTION_DDOT":0},{"OBJECT_NAME":"STARLINK-5055","OBJECT_ID":"2022-125BD","EPOCH":"2026-03-26T09:05:56.079456","MEAN_MOTION":15.08831545,"ECCENTRICITY":0.0001613,"INCLINATION":53.2182,"RA_OF_ASC_NODE":129.1053,"ARG_OF_PERICENTER":100.8429,"MEAN_ANOMALY":259.2744,"EPHEMERIS_TYPE":0,"CLASSIFICATION_TYPE":"U","NORAD_CAT_ID":54015,"ELEMENT_SET_NO":999,"REV_AT_EPOCH":19212,"BSTAR":1.0743e-5,"MEAN_MOTION_DOT":-1.17e-6,"MEAN_MOTION_DDOT":0},{"OBJECT_NAME":"STARLINK-5195","OBJECT_ID":"2022-136A","EPOCH":"2026-03-26T12:51:12.098880","MEAN_MOTION":15.08839391,"ECCENTRICITY":0.000153,"INCLINATION":53.2164,"RA_OF_ASC_NODE":268.7441,"ARG_OF_PERICENTER":91.2261,"MEAN_ANOMALY":268.8907,"EPHEMERIS_TYPE":0,"CLASSIFICATION_TYPE":"U","NORAD_CAT_ID":54051,"ELEMENT_SET_NO":999,"REV_AT_EPOCH":18938,"BSTAR":2.4708e-5,"MEAN_MOTION_DOT":1.05e-6,"MEAN_MOTION_DDOT":0},{"OBJECT_NAME":"STARLINK-5189","OBJECT_ID":"2022-136B","EPOCH":"2026-03-26T10:06:51.062976","MEAN_MOTION":15.08835449,"ECCENTRICITY":0.0001157,"INCLINATION":53.2164,"RA_OF_ASC_NODE":228.8203,"ARG_OF_PERICENTER":89.1869,"MEAN_ANOMALY":270.9256,"EPHEMERIS_TYPE":0,"CLASSIFICATION_TYPE":"U","NORAD_CAT_ID":54052,"ELEMENT_SET_NO":999,"REV_AT_EPOCH":18993,"BSTAR":2.9927e-5,"MEAN_MOTION_DOT":1.88e-6,"MEAN_MOTION_DDOT":0},{"OBJECT_NAME":"STARLINK-5176","OBJECT_ID":"2022-136C","EPOCH":"2026-03-26T12:45:53.362368","MEAN_MOTION":15.08837505,"ECCENTRICITY":0.000143,"INCLINATION":53.2127,"RA_OF_ASC_NODE":268.7186,"ARG_OF_PERICENTER":92.4484,"MEAN_ANOMALY":267.6672,"EPHEMERIS_TYPE":0,"CLASSIFICATION_TYPE":"U","NORAD_CAT_ID":54053,"ELEMENT_SET_NO":999,"REV_AT_EPOCH":18938,"BSTAR":3.5079e-5,"MEAN_MOTION_DOT":2.7e-6,"MEAN_MOTION_DDOT":0},{"OBJECT_NAME":"STARLINK-5163","OBJECT_ID":"2022-136D","EPOCH":"2026-03-26T12:35:17.106720","MEAN_MOTION":15.0884957,"ECCENTRICITY":0.0001298,"INCLINATION":53.2164,"RA_OF_ASC_NODE":268.674,"ARG_OF_PERICENTER":96.262,"MEAN_ANOMALY":263.852,"EPHEMERIS_TYPE":0,"CLASSIFICATION_TYPE":"U","NORAD_CAT_ID":54054,"ELEMENT_SET_NO":999,"REV_AT_EPOCH":18938,"BSTAR":-0.00014388,"MEAN_MOTION_DOT":-2.578e-5,"MEAN_MOTION_DDOT":0},{"OBJECT_NAME":"STARLINK-5158","OBJECT_ID":"2022-136E","EPOCH":"2026-03-26T12:40:35.456160","MEAN_MOTION":15.08850371,"ECCENTRICITY":0.0001511,"INCLINATION":53.2161,"RA_OF_ASC_NODE":268.6971,"ARG_OF_PERICENTER":93.7977,"MEAN_ANOMALY":266.3188,"EPHEMERIS_TYPE":0,"CLASSIFICATION_TYPE":"U","NORAD_CAT_ID":54055,"ELEMENT_SET_NO":999,"REV_AT_EPOCH":18938,"BSTAR":5.2074e-5,"MEAN_MOTION_DOT":5.41e-6,"MEAN_MOTION_DDOT":0},{"OBJECT_NAME":"STARLINK-5226","OBJECT_ID":"2022-136F","EPOCH":"2026-03-26T12:56:23.101728","MEAN_MOTION":15.08838853,"ECCENTRICITY":0.0001366,"INCLINATION":53.2153,"RA_OF_ASC_NODE":268.0681,"ARG_OF_PERICENTER":89.6776,"MEAN_ANOMALY":270.4372,"EPHEMERIS_TYPE":0,"CLASSIFICATION_TYPE":"U","NORAD_CAT_ID":54056,"ELEMENT_SET_NO":999,"REV_AT_EPOCH":18939,"BSTAR":7.6586e-7,"MEAN_MOTION_DOT":-2.76e-6,"MEAN_MOTION_DDOT":0},{"OBJECT_NAME":"STARLINK-5167","OBJECT_ID":"2022-136H","EPOCH":"2026-03-26T12:19:22.110240","MEAN_MOTION":15.08842849,"ECCENTRICITY":0.0001354,"INCLINATION":53.2157,"RA_OF_ASC_NODE":268.6029,"ARG_OF_PERICENTER":86.1335,"MEAN_ANOMALY":273.9811,"EPHEMERIS_TYPE":0,"CLASSIFICATION_TYPE":"U","NORAD_CAT_ID":54058,"ELEMENT_SET_NO":999,"REV_AT_EPOCH":18938,"BSTAR":0.00012437,"MEAN_MOTION_DOT":1.692e-5,"MEAN_MOTION_DDOT":0},{"OBJECT_NAME":"STARLINK-5173","OBJECT_ID":"2022-136J","EPOCH":"2026-03-25T22:06:12.767904","MEAN_MOTION":15.08853305,"ECCENTRICITY":0.0001432,"INCLINATION":53.2174,"RA_OF_ASC_NODE":271.3046,"ARG_OF_PERICENTER":86.9551,"MEAN_ANOMALY":273.1605,"EPHEMERIS_TYPE":0,"CLASSIFICATION_TYPE":"U","NORAD_CAT_ID":54059,"ELEMENT_SET_NO":999,"REV_AT_EPOCH":18929,"BSTAR":0.00028885,"MEAN_MOTION_DOT":4.314e-5,"MEAN_MOTION_DDOT":0},{"OBJECT_NAME":"STARLINK-5169","OBJECT_ID":"2022-136K","EPOCH":"2026-03-26T09:49:36.071328","MEAN_MOTION":15.08842769,"ECCENTRICITY":0.0001237,"INCLINATION":53.2155,"RA_OF_ASC_NODE":238.7209,"ARG_OF_PERICENTER":86.0102,"MEAN_ANOMALY":274.1032,"EPHEMERIS_TYPE":0,"CLASSIFICATION_TYPE":"U","NORAD_CAT_ID":54060,"ELEMENT_SET_NO":999,"REV_AT_EPOCH":18979,"BSTAR":5.6569e-5,"MEAN_MOTION_DOT":6.13e-6,"MEAN_MOTION_DDOT":0},{"OBJECT_NAME":"STARLINK-5209","OBJECT_ID":"2022-136L","EPOCH":"2026-03-26T09:47:36.276864","MEAN_MOTION":15.0884216,"ECCENTRICITY":0.0001402,"INCLINATION":53.2163,"RA_OF_ASC_NODE":233.6802,"ARG_OF_PERICENTER":89.7954,"MEAN_ANOMALY":270.3198,"EPHEMERIS_TYPE":0,"CLASSIFICATION_TYPE":"U","NORAD_CAT_ID":54061,"ELEMENT_SET_NO":999,"REV_AT_EPOCH":18986,"BSTAR":1.975e-5,"MEAN_MOTION_DOT":2.6e-7,"MEAN_MOTION_DDOT":0},{"OBJECT_NAME":"STARLINK-5170","OBJECT_ID":"2022-136M","EPOCH":"2026-03-25T18:44:49.295904","MEAN_MOTION":15.08841063,"ECCENTRICITY":0.00013682,"INCLINATION":53.2167,"RA_OF_ASC_NODE":271.8517,"ARG_OF_PERICENTER":87.3557,"MEAN_ANOMALY":272.7592,"EPHEMERIS_TYPE":0,"CLASSIFICATION_TYPE":"U","NORAD_CAT_ID":54062,"ELEMENT_SET_NO":999,"REV_AT_EPOCH":18927,"BSTAR":8.3843073e-5,"MEAN_MOTION_DOT":1.047e-5,"MEAN_MOTION_DDOT":0},{"OBJECT_NAME":"STARLINK-5172","OBJECT_ID":"2022-136P","EPOCH":"2026-03-26T09:22:32.146176","MEAN_MOTION":15.08838915,"ECCENTRICITY":0.0001465,"INCLINATION":53.2149,"RA_OF_ASC_NODE":224.3281,"ARG_OF_PERICENTER":89.5915,"MEAN_ANOMALY":270.5245,"EPHEMERIS_TYPE":0,"CLASSIFICATION_TYPE":"U","NORAD_CAT_ID":54064,"ELEMENT_SET_NO":999,"REV_AT_EPOCH":18999,"BSTAR":1.9478e-5,"MEAN_MOTION_DOT":2.2e-7,"MEAN_MOTION_DDOT":0},{"OBJECT_NAME":"STARLINK-5187","OBJECT_ID":"2022-136Q","EPOCH":"2026-03-25T18:28:53.927904","MEAN_MOTION":15.08838284,"ECCENTRICITY":0.00013987,"INCLINATION":53.2166,"RA_OF_ASC_NODE":271.7857,"ARG_OF_PERICENTER":90.9732,"MEAN_ANOMALY":269.1421,"EPHEMERIS_TYPE":0,"CLASSIFICATION_TYPE":"U","NORAD_CAT_ID":54065,"ELEMENT_SET_NO":999,"REV_AT_EPOCH":18927,"BSTAR":6.3783595e-5,"MEAN_MOTION_DOT":7.27e-6,"MEAN_MOTION_DDOT":0},{"OBJECT_NAME":"STARLINK-5151","OBJECT_ID":"2022-136R","EPOCH":"2026-03-25T21:44:58.850016","MEAN_MOTION":15.08838298,"ECCENTRICITY":0.0001228,"INCLINATION":53.2159,"RA_OF_ASC_NODE":271.2192,"ARG_OF_PERICENTER":90.5085,"MEAN_ANOMALY":269.6048,"EPHEMERIS_TYPE":0,"CLASSIFICATION_TYPE":"U","NORAD_CAT_ID":54066,"ELEMENT_SET_NO":999,"REV_AT_EPOCH":18929,"BSTAR":6.9446e-5,"MEAN_MOTION_DOT":8.17e-6,"MEAN_MOTION_DDOT":0},{"OBJECT_NAME":"STARLINK-5174","OBJECT_ID":"2022-136S","EPOCH":"2026-03-26T11:47:31.673184","MEAN_MOTION":15.08837872,"ECCENTRICITY":0.0001334,"INCLINATION":53.2167,"RA_OF_ASC_NODE":268.4695,"ARG_OF_PERICENTER":86.2227,"MEAN_ANOMALY":273.8918,"EPHEMERIS_TYPE":0,"CLASSIFICATION_TYPE":"U","NORAD_CAT_ID":54067,"ELEMENT_SET_NO":999,"REV_AT_EPOCH":18938,"BSTAR":6.9538e-5,"MEAN_MOTION_DOT":8.19e-6,"MEAN_MOTION_DDOT":0},{"OBJECT_NAME":"STARLINK-5222","OBJECT_ID":"2022-136T","EPOCH":"2026-03-26T11:52:49.969920","MEAN_MOTION":15.0886244,"ECCENTRICITY":0.000282,"INCLINATION":53.2099,"RA_OF_ASC_NODE":268.4907,"ARG_OF_PERICENTER":69.6048,"MEAN_ANOMALY":290.5247,"EPHEMERIS_TYPE":0,"CLASSIFICATION_TYPE":"U","NORAD_CAT_ID":54068,"ELEMENT_SET_NO":999,"REV_AT_EPOCH":18938,"BSTAR":4.7372e-5,"MEAN_MOTION_DOT":4.66e-6,"MEAN_MOTION_DDOT":0},{"OBJECT_NAME":"STARLINK-5181","OBJECT_ID":"2022-136V","EPOCH":"2026-03-25T11:46:08.056128","MEAN_MOTION":15.08834205,"ECCENTRICITY":0.00014235,"INCLINATION":53.2153,"RA_OF_ASC_NODE":272.8845,"ARG_OF_PERICENTER":92.2035,"MEAN_ANOMALY":267.912,"EPHEMERIS_TYPE":0,"CLASSIFICATION_TYPE":"U","NORAD_CAT_ID":54070,"ELEMENT_SET_NO":999,"REV_AT_EPOCH":18923,"BSTAR":2.0534567e-5,"MEAN_MOTION_DOT":3.9e-7,"MEAN_MOTION_DDOT":0},{"OBJECT_NAME":"STARLINK-5168","OBJECT_ID":"2022-136W","EPOCH":"2026-03-25T05:19:16.906080","MEAN_MOTION":15.08836563,"ECCENTRICITY":0.0001477,"INCLINATION":53.2165,"RA_OF_ASC_NODE":274.0517,"ARG_OF_PERICENTER":86.2343,"MEAN_ANOMALY":273.8818,"EPHEMERIS_TYPE":0,"CLASSIFICATION_TYPE":"U","NORAD_CAT_ID":54071,"ELEMENT_SET_NO":999,"REV_AT_EPOCH":18919,"BSTAR":9.6690298e-5,"MEAN_MOTION_DOT":1.251e-5,"MEAN_MOTION_DDOT":0},{"OBJECT_NAME":"STARLINK-5146","OBJECT_ID":"2022-136Y","EPOCH":"2026-03-26T01:57:18.733248","MEAN_MOTION":15.08842181,"ECCENTRICITY":0.00012178,"INCLINATION":53.2152,"RA_OF_ASC_NODE":265.1949,"ARG_OF_PERICENTER":88.816,"MEAN_ANOMALY":271.2971,"EPHEMERIS_TYPE":0,"CLASSIFICATION_TYPE":"U","NORAD_CAT_ID":54073,"ELEMENT_SET_NO":999,"REV_AT_EPOCH":18939,"BSTAR":8.3662423e-5,"MEAN_MOTION_DOT":1.044e-5,"MEAN_MOTION_DDOT":0},{"OBJECT_NAME":"STARLINK-5192","OBJECT_ID":"2022-136Z","EPOCH":"2026-03-25T19:32:27.017376","MEAN_MOTION":15.08837271,"ECCENTRICITY":0.00014074,"INCLINATION":53.217,"RA_OF_ASC_NODE":271.3519,"ARG_OF_PERICENTER":90.7768,"MEAN_ANOMALY":269.3385,"EPHEMERIS_TYPE":0,"CLASSIFICATION_TYPE":"U","NORAD_CAT_ID":54074,"ELEMENT_SET_NO":999,"REV_AT_EPOCH":18928,"BSTAR":1.0991838e-5,"MEAN_MOTION_DOT":-1.13e-6,"MEAN_MOTION_DDOT":0}]
